{
  "type": "FeatureCollection",
  "features": [
    {
      "type": "Feature",
      "properties": {
        "norad_id": 30380,
        "name": "FENGYUN 1C DEB",
        "group": "fengyun-1c-debris",
        "lat": 8.10373660918846,
        "lon": 29.3351969643618,
        "alt_km": 821.2604287669819,
        "timestamp": "2025-12-09T04:51:47.769241+00:00",
        "meta_object_name": "FENGYUN 1C DEB",
        "meta_object_id": "1999-025ACT",
        "meta_epoch": "2025-12-08T15:34:52.926816",
        "meta_mean_motion": 14.50652068,
        "meta_eccentricity": 0.0177357,
        "meta_inclination": 98.9145,
        "meta_ra_of_asc_node": 30.0297,
        "meta_arg_of_pericenter": 229.7425,
        "meta_mean_anomaly": 128.8144,
        "meta_ephemeris_type": 0,
        "meta_classification_type": "U",
        "meta_norad_cat_id": 30380,
        "meta_element_set_no": 999,
        "meta_rev_at_epoch": 99506,
        "meta_bstar": 0.00054007,
        "meta_mean_motion_dot": 2.537e-05,
        "meta_mean_motion_ddot": 0,
        "tle_line1": "1 30380U 99025ACT 25342.64922369  .00002537  00000+0  54007-3 0  9991",
        "tle_line2": "2 30380  98.9145  30.0297 0177357 229.7425 128.8144 14.50652068995068"
      },
      "geometry": {
        "type": "Point",
        "coordinates": [
          29.3351969643618,
          8.10373660918846
        ]
      }
    },
    {
      "type": "Feature",
      "properties": {
        "norad_id": 30381,
        "name": "FENGYUN 1C DEB",
        "group": "fengyun-1c-debris",
        "lat": 80.70889840377853,
        "lon": -90.25224259978295,
        "alt_km": 802.6004367036694,
        "timestamp": "2025-12-09T04:51:47.769251+00:00",
        "meta_object_name": "FENGYUN 1C DEB",
        "meta_object_id": "1999-025ACU",
        "meta_epoch": "2025-12-07T20:08:12.684480",
        "meta_mean_motion": 14.12918524,
        "meta_eccentricity": 0.00547943,
        "meta_inclination": 98.8131,
        "meta_ra_of_asc_node": 16.9083,
        "meta_arg_of_pericenter": 89.9696,
        "meta_mean_anomaly": 270.7755,
        "meta_ephemeris_type": 0,
        "meta_classification_type": "U",
        "meta_norad_cat_id": 30381,
        "meta_element_set_no": 999,
        "meta_rev_at_epoch": 92097,
        "meta_bstar": 0.0015382529,
        "meta_mean_motion_dot": 2.863e-05,
        "meta_mean_motion_ddot": 0,
        "tle_line1": "1 30381U 99025ACU 25341.83903570  .00002863  00000+0  15383-2 0  9990",
        "tle_line2": "2 30381  98.8131  16.9083 0054794  89.9696 270.7755 14.12918524920977"
      },
      "geometry": {
        "type": "Point",
        "coordinates": [
          -90.25224259978295,
          80.70889840377853
        ]
      }
    },
    {
      "type": "Feature",
      "properties": {
        "norad_id": 30382,
        "name": "FENGYUN 1C DEB",
        "group": "fengyun-1c-debris",
        "lat": -77.46305452435733,
        "lon": 63.93996403263163,
        "alt_km": 809.6283098198373,
        "timestamp": "2025-12-09T04:51:47.769261+00:00",
        "meta_object_name": "FENGYUN 1C DEB",
        "meta_object_id": "1999-025ACV",
        "meta_epoch": "2025-12-08T16:17:58.522848",
        "meta_mean_motion": 14.25262689,
        "meta_eccentricity": 0.0154979,
        "meta_inclination": 98.499,
        "meta_ra_of_asc_node": 21.1778,
        "meta_arg_of_pericenter": 8.9625,
        "meta_mean_anomaly": 107.6244,
        "meta_ephemeris_type": 0,
        "meta_classification_type": "U",
        "meta_norad_cat_id": 30382,
        "meta_element_set_no": 999,
        "meta_rev_at_epoch": 97477,
        "meta_bstar": 0.0012907,
        "meta_mean_motion_dot": 3.4e-05,
        "meta_mean_motion_ddot": 0,
        "tle_line1": "1 30382U 99025ACV 25342.67914957  .00003400  00000+0  12907-2 0  9992",
        "tle_line2": "2 30382  98.4990  21.1778 0154979   8.9625 107.6244 14.25262689974771"
      },
      "geometry": {
        "type": "Point",
        "coordinates": [
          63.93996403263163,
          -77.46305452435733
        ]
      }
    },
    {
      "type": "Feature",
      "properties": {
        "norad_id": 30385,
        "name": "FENGYUN 1C DEB",
        "group": "fengyun-1c-debris",
        "lat": 63.517334840851625,
        "lon": -15.02768403637762,
        "alt_km": 806.6806820615348,
        "timestamp": "2025-12-09T04:51:47.769271+00:00",
        "meta_object_name": "FENGYUN 1C DEB",
        "meta_object_id": "1999-025ACY",
        "meta_epoch": "2025-12-07T20:01:52.707648",
        "meta_mean_motion": 14.38772112,
        "meta_eccentricity": 0.01248347,
        "meta_inclination": 99.0822,
        "meta_ra_of_asc_node": 2.2527,
        "meta_arg_of_pericenter": 304.088,
        "meta_mean_anomaly": 238.1478,
        "meta_ephemeris_type": 0,
        "meta_classification_type": "U",
        "meta_norad_cat_id": 30385,
        "meta_element_set_no": 999,
        "meta_rev_at_epoch": 98698,
        "meta_bstar": 0.00055914572,
        "meta_mean_motion_dot": 1.827e-05,
        "meta_mean_motion_ddot": 0,
        "tle_line1": "1 30385U 99025ACY 25341.83463782  .00001827  00000+0  55915-3 0  9995",
        "tle_line2": "2 30385  99.0822   2.2527 0124834 304.0880 238.1478 14.38772112986983"
      },
      "geometry": {
        "type": "Point",
        "coordinates": [
          -15.02768403637762,
          63.517334840851625
        ]
      }
    },
    {
      "type": "Feature",
      "properties": {
        "norad_id": 30386,
        "name": "FENGYUN 1C DEB",
        "group": "fengyun-1c-debris",
        "lat": 54.65677134903149,
        "lon": 71.35505690066061,
        "alt_km": 872.7390615055147,
        "timestamp": "2025-12-09T04:51:47.769281+00:00",
        "meta_object_name": "FENGYUN 1C DEB",
        "meta_object_id": "1999-025ACZ",
        "meta_epoch": "2025-12-08T16:07:53.853312",
        "meta_mean_motion": 13.55555171,
        "meta_eccentricity": 0.0303573,
        "meta_inclination": 98.6906,
        "meta_ra_of_asc_node": 238.4321,
        "meta_arg_of_pericenter": 166.3977,
        "meta_mean_anomaly": 252.7695,
        "meta_ephemeris_type": 0,
        "meta_classification_type": "U",
        "meta_norad_cat_id": 30386,
        "meta_element_set_no": 999,
        "meta_rev_at_epoch": 92774,
        "meta_bstar": 0.0022103,
        "meta_mean_motion_dot": 2.029e-05,
        "meta_mean_motion_ddot": 0,
        "tle_line1": "1 30386U 99025ACZ 25342.67215108  .00002029  00000+0  22103-2 0  9993",
        "tle_line2": "2 30386  98.6906 238.4321 0303573 166.3977 252.7695 13.55555171927746"
      },
      "geometry": {
        "type": "Point",
        "coordinates": [
          71.35505690066061,
          54.65677134903149
        ]
      }
    },
    {
      "type": "Feature",
      "properties": {
        "norad_id": 30387,
        "name": "FENGYUN 1C DEB",
        "group": "fengyun-1c-debris",
        "lat": -10.5341750249319,
        "lon": 176.75417338075457,
        "alt_km": 846.3970060756283,
        "timestamp": "2025-12-09T04:51:47.769291+00:00",
        "meta_object_name": "FENGYUN 1C DEB",
        "meta_object_id": "1999-025ADA",
        "meta_epoch": "2025-12-08T07:40:33.530592",
        "meta_mean_motion": 14.15046253,
        "meta_eccentricity": 0.00011814,
        "meta_inclination": 98.6568,
        "meta_ra_of_asc_node": 357.5211,
        "meta_arg_of_pericenter": 98.216,
        "meta_mean_anomaly": 277.6848,
        "meta_ephemeris_type": 0,
        "meta_classification_type": "U",
        "meta_norad_cat_id": 30387,
        "meta_element_set_no": 999,
        "meta_rev_at_epoch": 97262,
        "meta_bstar": 0.00045409872,
        "meta_mean_motion_dot": 8.37e-06,
        "meta_mean_motion_ddot": 0,
        "tle_line1": "1 30387U 99025ADA 25342.31983253  .00000837  00000+0  45410-3 0  9990",
        "tle_line2": "2 30387  98.6568 357.5211 0001181  98.2160 277.6848 14.15046253972625"
      },
      "geometry": {
        "type": "Point",
        "coordinates": [
          176.75417338075457,
          -10.5341750249319
        ]
      }
    },
    {
      "type": "Feature",
      "properties": {
        "norad_id": 30388,
        "name": "FENGYUN 1C DEB",
        "group": "fengyun-1c-debris",
        "lat": 42.70437183024826,
        "lon": -4.060412251442109,
        "alt_km": 682.5180490426692,
        "timestamp": "2025-12-09T04:51:47.769301+00:00",
        "meta_object_name": "FENGYUN 1C DEB",
        "meta_object_id": "1999-025ADB",
        "meta_epoch": "2025-12-08T20:46:28.053408",
        "meta_mean_motion": 14.19756868,
        "meta_eccentricity": 0.022226,
        "meta_inclination": 98.5994,
        "meta_ra_of_asc_node": 3.6399,
        "meta_arg_of_pericenter": 73.9739,
        "meta_mean_anomaly": 49.0085,
        "meta_ephemeris_type": 0,
        "meta_classification_type": "U",
        "meta_norad_cat_id": 30388,
        "meta_element_set_no": 999,
        "meta_rev_at_epoch": 97377,
        "meta_bstar": 0.00079611,
        "meta_mean_motion_dot": 2.115e-05,
        "meta_mean_motion_ddot": 0,
        "tle_line1": "1 30388U 99025ADB 25342.86560247  .00002115  00000+0  79611-3 0  9996",
        "tle_line2": "2 30388  98.5994   3.6399 0222260  73.9739  49.0085 14.19756868973774"
      },
      "geometry": {
        "type": "Point",
        "coordinates": [
          -4.060412251442109,
          42.70437183024826
        ]
      }
    }
  ]
}